{
  "norad_id": 68336,
  "name": "STARLINK-37143",
  "history": [
    {
      "epoch": "2026-03-31T16:00:01.999584Z",
      "apogee_km": 327.4869653696551,
      "perigee_km": 326.43292412994106,
      "latitude_deg": -53.24058271533236,
      "longitude_deg": 97.76861706758233,
      "height_km": 345.9488398402225,
      "semi_major_axis_km": 6705.096944749798,
      "eccentricity": 7.86e-05,
      "inclination_deg": 53.1595,
      "raan_deg": 252.6202,
      "arg_perigee_deg": 73.5208,
      "mean_anomaly_deg": 199.0079,
      "mean_motion_rev_day": 15.81230453
    }
  ]
}